[{"OBJECT_NAME":"STARLINK-3112","OBJECT_ID":"2021-104P","EPOCH":"2025-07-31T22:56:23.421696","MEAN_MOTION":15.0883346,"ECCENTRICITY":0.0001315,"INCLINATION":53.217,"RA_OF_ASC_NODE":139.8394,"ARG_OF_PERICENTER":92.1992,"MEAN_ANOMALY":267.9151,"EPHEMERIS_TYPE":0,"CLASSIFICATION_TYPE":"U","NORAD_CAT_ID":49421,"ELEMENT_SET_NO":999,"REV_AT_EPOCH":20530,"BSTAR":-3.9581e-5,"MEAN_MOTION_DOT":-9.18e-6,"MEAN_MOTION_DDOT":0},{"OBJECT_NAME":"STARLINK-3161","OBJECT_ID":"2021-104Q","EPOCH":"2025-08-01T01:58:01.813152","MEAN_MOTION":15.08838109,"ECCENTRICITY":0.0001383,"INCLINATION":53.2174,"RA_OF_ASC_NODE":139.7863,"ARG_OF_PERICENTER":92.9901,"MEAN_ANOMALY":267.125,"EPHEMERIS_TYPE":0,"CLASSIFICATION_TYPE":"U","NORAD_CAT_ID":49422,"ELEMENT_SET_NO":999,"REV_AT_EPOCH":20642,"BSTAR":1.0524e-5,"MEAN_MOTION_DOT":-1.2e-6,"MEAN_MOTION_DDOT":0},{"OBJECT_NAME":"STARLINK-3149","OBJECT_ID":"2021-104R","EPOCH":"2025-07-31T12:31:09.374592","MEAN_MOTION":15.08836102,"ECCENTRICITY":0.000179,"INCLINATION":53.2172,"RA_OF_ASC_NODE":142.1743,"ARG_OF_PERICENTER":90.4049,"MEAN_ANOMALY":269.7148,"EPHEMERIS_TYPE":0,"CLASSIFICATION_TYPE":"U","NORAD_CAT_ID":49423,"ELEMENT_SET_NO":999,"REV_AT_EPOCH":20632,"BSTAR":2.4962e-5,"MEAN_MOTION_DOT":1.09e-6,"MEAN_MOTION_DDOT":0},{"OBJECT_NAME":"STARLINK-3135","OBJECT_ID":"2021-104S","EPOCH":"2025-08-01T04:14:22.547040","MEAN_MOTION":15.08840098,"ECCENTRICITY":0.0001419,"INCLINATION":53.2169,"RA_OF_ASC_NODE":139.043,"ARG_OF_PERICENTER":90.9945,"MEAN_ANOMALY":269.121,"EPHEMERIS_TYPE":0,"CLASSIFICATION_TYPE":"U","NORAD_CAT_ID":49424,"ELEMENT_SET_NO":999,"REV_AT_EPOCH":20642,"BSTAR":3.1345e-5,"MEAN_MOTION_DOT":2.11e-6,"MEAN_MOTION_DDOT":0},{"OBJECT_NAME":"STARLINK-3139","OBJECT_ID":"2021-104T","EPOCH":"2025-08-01T03:54:33.537888","MEAN_MOTION":15.08837489,"ECCENTRICITY":0.0001386,"INCLINATION":53.217,"RA_OF_ASC_NODE":139.1166,"ARG_OF_PERICENTER":91.7882,"MEAN_ANOMALY":268.3269,"EPHEMERIS_TYPE":0,"CLASSIFICATION_TYPE":"U","NORAD_CAT_ID":49425,"ELEMENT_SET_NO":999,"REV_AT_EPOCH":20642,"BSTAR":1.9325e-5,"MEAN_MOTION_DOT":2.0e-7,"MEAN_MOTION_DDOT":0},{"OBJECT_NAME":"STARLINK-3114","OBJECT_ID":"2021-104U","EPOCH":"2025-08-01T04:03:47.006784","MEAN_MOTION":15.08831856,"ECCENTRICITY":0.0001357,"INCLINATION":53.2172,"RA_OF_ASC_NODE":139.0803,"ARG_OF_PERICENTER":102.9375,"MEAN_ANOMALY":257.1769,"EPHEMERIS_TYPE":0,"CLASSIFICATION_TYPE":"U","NORAD_CAT_ID":49426,"ELEMENT_SET_NO":999,"REV_AT_EPOCH":20642,"BSTAR":-1.6389e-5,"MEAN_MOTION_DOT":-5.49e-6,"MEAN_MOTION_DDOT":0},{"OBJECT_NAME":"STARLINK-3131","OBJECT_ID":"2021-104V","EPOCH":"2025-07-31T23:03:06.145056","MEAN_MOTION":15.08836212,"ECCENTRICITY":0.0001578,"INCLINATION":53.218,"RA_OF_ASC_NODE":140.0247,"ARG_OF_PERICENTER":84.5672,"MEAN_ANOMALY":275.55,"EPHEMERIS_TYPE":0,"CLASSIFICATION_TYPE":"U","NORAD_CAT_ID":49427,"ELEMENT_SET_NO":999,"REV_AT_EPOCH":20531,"BSTAR":-1.3674e-5,"MEAN_MOTION_DOT":-5.06e-6,"MEAN_MOTION_DDOT":0},{"OBJECT_NAME":"STARLINK-3121","OBJECT_ID":"2021-104W","EPOCH":"2025-08-01T04:56:45.235104","MEAN_MOTION":15.0883673,"ECCENTRICITY":0.000175,"INCLINATION":53.2173,"RA_OF_ASC_NODE":138.8223,"ARG_OF_PERICENTER":93.3823,"MEAN_ANOMALY":266.737,"EPHEMERIS_TYPE":0,"CLASSIFICATION_TYPE":"U","NORAD_CAT_ID":49428,"ELEMENT_SET_NO":999,"REV_AT_EPOCH":20643,"BSTAR":-3.3148e-5,"MEAN_MOTION_DOT":-8.16e-6,"MEAN_MOTION_DDOT":0},{"OBJECT_NAME":"STARLINK-3138","OBJECT_ID":"2021-104Y","EPOCH":"2025-08-01T04:21:06.107616","MEAN_MOTION":15.08842319,"ECCENTRICITY":0.0001469,"INCLINATION":53.2171,"RA_OF_ASC_NODE":139.2987,"ARG_OF_PERICENTER":86.5044,"MEAN_ANOMALY":273.6116,"EPHEMERIS_TYPE":0,"CLASSIFICATION_TYPE":"U","NORAD_CAT_ID":49430,"ELEMENT_SET_NO":999,"REV_AT_EPOCH":20642,"BSTAR":7.6039e-6,"MEAN_MOTION_DOT":-1.67e-6,"MEAN_MOTION_DDOT":0},{"OBJECT_NAME":"STARLINK-3153","OBJECT_ID":"2021-104Z","EPOCH":"2025-08-01T04:46:11.723520","MEAN_MOTION":15.08841797,"ECCENTRICITY":0.0001464,"INCLINATION":53.2175,"RA_OF_ASC_NODE":139.1237,"ARG_OF_PERICENTER":88.966,"MEAN_ANOMALY":271.1499,"EPHEMERIS_TYPE":0,"CLASSIFICATION_TYPE":"U","NORAD_CAT_ID":49431,"ELEMENT_SET_NO":999,"REV_AT_EPOCH":20643,"BSTAR":4.7595e-5,"MEAN_MOTION_DOT":4.7e-6,"MEAN_MOTION_DDOT":0},{"OBJECT_NAME":"STARLINK-3158","OBJECT_ID":"2021-104AA","EPOCH":"2025-08-01T04:27:40.562496","MEAN_MOTION":15.08836295,"ECCENTRICITY":0.0001485,"INCLINATION":53.2179,"RA_OF_ASC_NODE":129.001,"ARG_OF_PERICENTER":98.4452,"MEAN_ANOMALY":261.6709,"EPHEMERIS_TYPE":0,"CLASSIFICATION_TYPE":"U","NORAD_CAT_ID":49432,"ELEMENT_SET_NO":999,"REV_AT_EPOCH":20656,"BSTAR":-2.1855e-5,"MEAN_MOTION_DOT":-6.36e-6,"MEAN_MOTION_DDOT":0},{"OBJECT_NAME":"STARLINK-3079","OBJECT_ID":"2021-104AB","EPOCH":"2025-08-01T02:52:14.717856","MEAN_MOTION":15.08832506,"ECCENTRICITY":0.0001483,"INCLINATION":53.218,"RA_OF_ASC_NODE":119.3022,"ARG_OF_PERICENTER":90.1615,"MEAN_ANOMALY":269.9547,"EPHEMERIS_TYPE":0,"CLASSIFICATION_TYPE":"U","NORAD_CAT_ID":49433,"ELEMENT_SET_NO":999,"REV_AT_EPOCH":20670,"BSTAR":2.2069e-5,"MEAN_MOTION_DOT":6.3e-7,"MEAN_MOTION_DDOT":0},{"OBJECT_NAME":"STARLINK-3134","OBJECT_ID":"2021-104AC","EPOCH":"2025-08-01T00:47:44.140992","MEAN_MOTION":15.08835469,"ECCENTRICITY":0.0001432,"INCLINATION":53.2183,"RA_OF_ASC_NODE":139.8432,"ARG_OF_PERICENTER":88.8042,"MEAN_ANOMALY":271.3114,"EPHEMERIS_TYPE":0,"CLASSIFICATION_TYPE":"U","NORAD_CAT_ID":49434,"ELEMENT_SET_NO":999,"REV_AT_EPOCH":20640,"BSTAR":2.4483e-5,"MEAN_MOTION_DOT":1.02e-6,"MEAN_MOTION_DDOT":0},{"OBJECT_NAME":"STARLINK-3117","OBJECT_ID":"2021-104AD","EPOCH":"2025-08-01T02:58:55.304544","MEAN_MOTION":15.08843848,"ECCENTRICITY":0.0001527,"INCLINATION":53.2181,"RA_OF_ASC_NODE":119.279,"ARG_OF_PERICENTER":86.7587,"MEAN_ANOMALY":273.358,"EPHEMERIS_TYPE":0,"CLASSIFICATION_TYPE":"U","NORAD_CAT_ID":49435,"ELEMENT_SET_NO":999,"REV_AT_EPOCH":20670,"BSTAR":-5.6677e-5,"MEAN_MOTION_DOT":-1.19e-5,"MEAN_MOTION_DDOT":0},{"OBJECT_NAME":"STARLINK-3049","OBJECT_ID":"2021-104AE","EPOCH":"2025-07-31T11:03:41.005728","MEAN_MOTION":15.08837949,"ECCENTRICITY":0.0001635,"INCLINATION":53.2182,"RA_OF_ASC_NODE":122.2582,"ARG_OF_PERICENTER":92.8449,"MEAN_ANOMALY":267.2731,"EPHEMERIS_TYPE":0,"CLASSIFICATION_TYPE":"U","NORAD_CAT_ID":49436,"ELEMENT_SET_NO":999,"REV_AT_EPOCH":20551,"BSTAR":3.6861e-6,"MEAN_MOTION_DOT":-2.29e-6,"MEAN_MOTION_DDOT":0},{"OBJECT_NAME":"STARLINK-3130","OBJECT_ID":"2021-104AF","EPOCH":"2025-07-31T22:00:47.039040","MEAN_MOTION":15.08836375,"ECCENTRICITY":0.0001354,"INCLINATION":53.2173,"RA_OF_ASC_NODE":120.2091,"ARG_OF_PERICENTER":97.8385,"MEAN_ANOMALY":262.2761,"EPHEMERIS_TYPE":0,"CLASSIFICATION_TYPE":"U","NORAD_CAT_ID":49437,"ELEMENT_SET_NO":999,"REV_AT_EPOCH":20558,"BSTAR":-1.4232e-5,"MEAN_MOTION_DOT":-5.14e-6,"MEAN_MOTION_DDOT":0},{"OBJECT_NAME":"STARLINK-3044","OBJECT_ID":"2021-104AG","EPOCH":"2025-08-01T02:32:24.610560","MEAN_MOTION":15.0883537,"ECCENTRICITY":0.0001381,"INCLINATION":53.2173,"RA_OF_ASC_NODE":119.2945,"ARG_OF_PERICENTER":87.3334,"MEAN_ANOMALY":272.7816,"EPHEMERIS_TYPE":0,"CLASSIFICATION_TYPE":"U","NORAD_CAT_ID":49438,"ELEMENT_SET_NO":999,"REV_AT_EPOCH":20668,"BSTAR":-4.1013e-5,"MEAN_MOTION_DOT":-9.4e-6,"MEAN_MOTION_DDOT":0},{"OBJECT_NAME":"STARLINK-3105","OBJECT_ID":"2021-104AJ","EPOCH":"2025-07-31T21:50:10.938912","MEAN_MOTION":15.08840564,"ECCENTRICITY":0.0001516,"INCLINATION":53.2161,"RA_OF_ASC_NODE":120.2414,"ARG_OF_PERICENTER":81.8556,"MEAN_ANOMALY":278.2608,"EPHEMERIS_TYPE":0,"CLASSIFICATION_TYPE":"U","NORAD_CAT_ID":49440,"ELEMENT_SET_NO":999,"REV_AT_EPOCH":20558,"BSTAR":2.7052e-5,"MEAN_MOTION_DOT":1.43e-6,"MEAN_MOTION_DDOT":0},{"OBJECT_NAME":"STARLINK-3128","OBJECT_ID":"2021-104AK","EPOCH":"2025-07-31T22:59:04.562880","MEAN_MOTION":15.08835269,"ECCENTRICITY":0.0001382,"INCLINATION":53.2181,"RA_OF_ASC_NODE":120.0226,"ARG_OF_PERICENTER":101.0216,"MEAN_ANOMALY":259.0932,"EPHEMERIS_TYPE":0,"CLASSIFICATION_TYPE":"U","NORAD_CAT_ID":49441,"ELEMENT_SET_NO":999,"REV_AT_EPOCH":20559,"BSTAR":-3.4696e-5,"MEAN_MOTION_DOT":-8.4e-6,"MEAN_MOTION_DDOT":0},{"OBJECT_NAME":"STARLINK-3098","OBJECT_ID":"2021-104AL","EPOCH":"2025-07-31T23:20:16.590336","MEAN_MOTION":15.08833301,"ECCENTRICITY":0.0001735,"INCLINATION":53.2172,"RA_OF_ASC_NODE":119.9617,"ARG_OF_PERICENTER":91.0621,"MEAN_ANOMALY":269.057,"EPHEMERIS_TYPE":0,"CLASSIFICATION_TYPE":"U","NORAD_CAT_ID":49442,"ELEMENT_SET_NO":999,"REV_AT_EPOCH":20667,"BSTAR":-2.2588e-5,"MEAN_MOTION_DOT":-6.47e-6,"MEAN_MOTION_DDOT":0},{"OBJECT_NAME":"STARLINK-3136","OBJECT_ID":"2021-104AM","EPOCH":"2025-08-01T00:29:09.491136","MEAN_MOTION":15.08837647,"ECCENTRICITY":0.000134,"INCLINATION":53.2169,"RA_OF_ASC_NODE":119.7396,"ARG_OF_PERICENTER":104.4888,"MEAN_ANOMALY":255.6253,"EPHEMERIS_TYPE":0,"CLASSIFICATION_TYPE":"U","NORAD_CAT_ID":49443,"ELEMENT_SET_NO":999,"REV_AT_EPOCH":20667,"BSTAR":-3.9607e-5,"MEAN_MOTION_DOT":-9.18e-6,"MEAN_MOTION_DDOT":0},{"OBJECT_NAME":"STARLINK-3126","OBJECT_ID":"2021-104AN","EPOCH":"2025-08-01T00:51:43.766208","MEAN_MOTION":15.08844775,"ECCENTRICITY":0.0001376,"INCLINATION":53.2177,"RA_OF_ASC_NODE":119.6877,"ARG_OF_PERICENTER":92.8598,"MEAN_ANOMALY":267.2552,"EPHEMERIS_TYPE":0,"CLASSIFICATION_TYPE":"U","NORAD_CAT_ID":49444,"ELEMENT_SET_NO":999,"REV_AT_EPOCH":20667,"BSTAR":-4.0623e-5,"MEAN_MOTION_DOT":-9.34e-6,"MEAN_MOTION_DDOT":0},{"OBJECT_NAME":"STARLINK-3122","OBJECT_ID":"2021-104AP","EPOCH":"2025-07-31T22:53:54.326400","MEAN_MOTION":15.08831695,"ECCENTRICITY":0.0001464,"INCLINATION":53.2173,"RA_OF_ASC_NODE":130.4419,"ARG_OF_PERICENTER":94.3903,"MEAN_ANOMALY":265.7256,"EPHEMERIS_TYPE":0,"CLASSIFICATION_TYPE":"U","NORAD_CAT_ID":49445,"ELEMENT_SET_NO":999,"REV_AT_EPOCH":20544,"BSTAR":-1.4302e-5,"MEAN_MOTION_DOT":-5.16e-6,"MEAN_MOTION_DDOT":0}]
